[{"OBJECT_NAME":"STARLINK-31978","OBJECT_ID":"2024-111A","EPOCH":"2026-03-09T23:33:23.656320","MEAN_MOTION":15.30189322,"ECCENTRICITY":0.0001178,"INCLINATION":53.1608,"RA_OF_ASC_NODE":74.5958,"ARG_OF_PERICENTER":101.0877,"MEAN_ANOMALY":259.0256,"EPHEMERIS_TYPE":0,"CLASSIFICATION_TYPE":"U","NORAD_CAT_ID":60016,"ELEMENT_SET_NO":999,"REV_AT_EPOCH":9897,"BSTAR":1.3113826e-5,"MEAN_MOTION_DOT":2.9e-7,"MEAN_MOTION_DDOT":0},{"OBJECT_NAME":"CZ-4B R\/B","OBJECT_ID":"2004-035C","EPOCH":"2026-03-09T23:23:31.358400","MEAN_MOTION":15.2906998,"ECCENTRICITY":0.00309852,"INCLINATION":97.3501,"RA_OF_ASC_NODE":103.2135,"ARG_OF_PERICENTER":330.5139,"MEAN_ANOMALY":29.4353,"EPHEMERIS_TYPE":0,"CLASSIFICATION_TYPE":"U","NORAD_CAT_ID":28415,"ELEMENT_SET_NO":999,"REV_AT_EPOCH":17995,"BSTAR":0.00034109099,"MEAN_MOTION_DOT":9.691e-5,"MEAN_MOTION_DDOT":0}]
